THAICOM 8               
1 41552U 16031A   17178.01717931 -.00000141  00000-0  00000-0 0  9998
2 41552   0.0657  46.3600 0003745   6.4438 307.2170  1.00272137  3871
INTELSAT 31 (IS-31)     
1 41581U 16035A   17177.50061344 -.00000169  00000-0  00000-0 0  9997
2 41581   0.0265 263.5646 0001446 338.3949 118.0133  1.00271619  3838
BEIDOU G7               
1 41586U 16037A   17177.72110477 -.00000265  00000-0  00000-0 0  9997
2 41586   1.2229 318.3911 0001761 278.7951  82.0358  1.00271807  3939
ABS-2A (MONGOLSAT-1)    
1 41588U 16038A   17178.02766438 -.00000103  00000-0  00000-0 0  9999
2 41588   0.0141  73.5636 0002203 292.1611 354.2642  1.00269626  3868
EUTELSAT 117 WEST B     
1 41589U 16038B   17177.56145281 -.00000030  00000-0  00000-0 0  9994
2 41589   0.0110 159.4171 0000370 324.0034 236.5703  1.00271417  3850
BRISAT                  
1 41591U 16039A   17177.81779284 -.00000216  00000-0  00000-0 0  9998
2 41591   0.0208  14.7549 0001915  77.6176 267.6493  1.00268864  3771
ECHOSTAR 18             
1 41592U 16039B   17178.40461131 -.00000301  00000-0  00000-0 0  9999
2 41592   0.0179  68.8964 0002187  17.2876 273.8270  1.00271479  3777
TIANTONG-1 1            
1 41725U 16048A   17178.96447537 -.00000335  00000-0  00000-0 0  9999
2 41725   4.5700 325.3436 0001552  71.4493 328.0866  1.00269727  3420
JCSAT-16                
1 41729U 16050A   17176.78846358 -.00000109  00000-0  00000-0 0  9997
2 41729   0.0193  73.1199 0001892  14.5827 272.3083  1.00270654  3200
INTELSAT 36 (IS-36)     
1 41747U 16053A   17178.04486341 -.00000044  00000-0  00000-0 0  9991
2 41747   0.0128  28.5089 0002753 340.2648 351.2174  1.00270945  3118
INTELSAT 33E (IS-33E)   
1 41748U 16053B   17178.06849266  .00000030  00000-0  00000-0 0  9997
2 41748   0.0141  29.5885 0002091 100.6659 229.7505  1.00272026  3405
INSAT-3DR               
1 41752U 16054A   17178.02955096 -.00000096  00000-0  00000-0 0  9991
2 41752   0.0156   8.3417 0006270 267.4901  84.0967  1.00270108  2960
GSAT-18                 
1 41793U 16060A   17178.02995927 -.00000096  00000-0  00000-0 0  9990
2 41793   0.0347 107.7542 0008189 340.4954 271.8311  1.00271229  2684
SKY MUSTER 2            
1 41794U 16060B   17177.83352639 -.00000263  00000-0  00000-0 0  9992
2 41794   0.0171 332.8904 0001419 114.9193 272.1934  1.00271736  2713
HIMAWARI-9              
1 41836U 16064A   17177.84465483 -.00000294  00000-0  00000-0 0  9990
2 41836   0.0241 299.5651 0000831 169.8426 250.5881  1.00270429  2440
SHIJIAN-17 (SJ-17)      
1 41838U 16065A   17178.92223517 -.00000374  00000-0  00000-0 0  9992
2 41838   0.0440 240.9960 0000996 166.1644 325.9642  1.00267016  2383
GOES 16                 
1 41866U 16071A   17178.48248155 -.00000202  00000-0  00000-0 0  9996
2 41866   0.0421 184.3436 0000438 220.7436 314.9021  1.00272098  2250
TIANLIAN 1-04           
1 41869U 16072A   17174.98174303 -.00000117  00000-0  00000-0 0  9999
2 41869   2.6433 289.8415 0007329 153.9295 259.0082  1.00272158  2420
FENGYUN 4A              
1 41882U 16077A   17177.76834385 -.00000348  00000-0  00000-0 0  9997
2 41882   0.0354 181.9713 0008954 264.0184 210.3448  1.00266981  2117
ECHOSTAR 19             
1 41893U 16079A   17178.50365237 -.00000157  00000-0  00000-0 0  9997
2 41893   0.0241  19.5271 0001273  60.8422 279.6452  1.00269956  1884
STAR ONE D1             
1 41904U 16082B   17178.46735285 -.00000230  00000-0  00000-0 0  9995
2 41904   0.0387  89.4466 0002262  15.0759 255.4885  1.00272651  1938
TJS-2                   
1 41911U 17001A   17178.93455100 -.00000361  00000-0  00000-0 0  9997
2 41911   0.6544 279.3947 0000423 256.3400 184.4183  1.00269120  1884
HISPASAT 36W-1          
1 41942U 17006A   17178.33398957 -.00000263  00000-0  00000-0 0  9997
2 41942   0.0267 129.0712 0001055 328.7504 262.1764  1.00270758  1389
TELKOM 3S               
1 41944U 17007A   17177.90780514 -.00000382  00000-0  00000-0 0  9998
2 41944   0.0142  20.9288 0002403  70.8002 268.2852  1.00273556  1289
INTELSAT 32E (IS-32E)   
1 41945U 17007B   17178.35422131 -.00000288  00000-0  00000-0 0  9992
2 41945   0.0144  37.9225 0000848 300.9852  21.0747  1.00270091  1393
ECHOSTAR 23             
1 42070U 17014A   17178.35910260 -.00000292  00000-0  00000-0 0  9990
2 42070   0.0236  16.8783 0002119  76.8214 266.3245  1.00268819  1082
SES-10                  
1 42432U 17017A   17178.41998633 -.00000292  00000-0  00000-0 0  9992
2 42432   0.0113  10.7634 0002206  68.4024 280.8449  1.00271032   930
CHINASAT 16 (SJ-13)     
1 42662U 17018A   17178.92561776 -.00000372  00000-0  00000-0 0  9997
2 42662   0.0693  95.0055 0004457 126.3478 138.5981  1.00273605   879
KOREASAT 7              
1 42691U 17023A   17176.73842590 -.00000379  00000-0  00000-0 0  9995
2 42691   0.0145  24.7296 0000146 241.3690  29.6353  1.00267502   562
SGDC                    
1 42692U 17023B   17178.52754459 -.00000268  00000-0  00000-0 0  9998
2 42692   0.0171   6.9750 0000773 206.3802 177.5136  1.00269387   599
GSAT-9                  
1 42695U 17024A   17174.56091019 -.00000297  00000-0  00000-0 0  9990
2 42695   0.0685 153.6202 0002794 295.6906 121.8826  1.00270799   536
